OBJECT_NAME,OBJECT_ID,EPOCH,MEAN_MOTION,ECCENTRICITY,INCLINATION,RA_OF_ASC_NODE,ARG_OF_PERICENTER,MEAN_ANOMALY,EPHEMERIS_TYPE,CLASSIFICATION_TYPE,NORAD_CAT_ID,ELEMENT_SET_NO,REV_AT_EPOCH,BSTAR,MEAN_MOTION_DOT,MEAN_MOTION_DDOT
HELIOS 2A,2004-049A,2024-07-08T04:39:03.279744,14.97794311,.0014492,98.3196,185.0361,126.3439,233.9121,0,U,28492,999,4744,.24803E-3,.2852E-4,0
SPIRALE A,2009-008C,2024-07-07T05:14:05.384832,4.59725910,.5545651,2.0315,255.6219,244.3212,49.6212,0,U,33751,999,22932,.12776E-2,.1133E-4,0
SPIRALE B,2009-008D,2024-07-07T00:28:08.329440,2.93617902,.6782925,2.0515,59.6837,258.8738,23.5227,0,U,33752,999,14668,.15916E-2,.8312E-4,0
SAPPHIRE,2013-009C,2024-07-08T01:32:36.287232,14.34719644,.0010966,98.4108,16.3054,194.7927,165.2939,0,U,39088,999,59489,.98868E-4,.237E-5,0
